[{"OBJECT_NAME":"STARLINK-32545","OBJECT_ID":"2024-222X","EPOCH":"2026-03-09T05:27:17.997696","MEAN_MOTION":15.27592527,"ECCENTRICITY":7.24e-5,"INCLINATION":42.9973,"RA_OF_ASC_NODE":139.1901,"ARG_OF_PERICENTER":208.4705,"MEAN_ANOMALY":151.6107,"EPHEMERIS_TYPE":0,"CLASSIFICATION_TYPE":"U","NORAD_CAT_ID":62135,"ELEMENT_SET_NO":999,"REV_AT_EPOCH":7272,"BSTAR":0.0013788047,"MEAN_MOTION_DOT":0.00037889,"MEAN_MOTION_DDOT":0},{"OBJECT_NAME":"TROLL","OBJECT_ID":"2025-009BB","EPOCH":"2026-03-09T05:24:19.835712","MEAN_MOTION":15.28164315,"ECCENTRICITY":0.00018165,"INCLINATION":97.3932,"RA_OF_ASC_NODE":150.7169,"ARG_OF_PERICENTER":59.185,"MEAN_ANOMALY":300.9568,"EPHEMERIS_TYPE":0,"CLASSIFICATION_TYPE":"U","NORAD_CAT_ID":62658,"ELEMENT_SET_NO":999,"REV_AT_EPOCH":11817,"BSTAR":0.00048220305,"MEAN_MOTION_DOT":0.00013174,"MEAN_MOTION_DDOT":0}]
