STARLINK-32545          
1 62135U 24222X   26068.22729164  .00037889  00000+0  13788-2 0  9997
2 62135  42.9973 139.1901 0000724 208.4705 151.6107 15.27592527 72720
TROLL                   
1 62658U 25009BB  26068.22522958  .00013174  00000+0  48220-3 0  9994
2 62658  97.3932 150.7169 0001816  59.1850 300.9568 15.28164315118170
